start=new Date('2022-12-02T00:00:00.000Z').valueOf();
sats=[{"BSTAR":"0.00006628100000","MEAN_MOTION_DOT":"0.00000706","EPHEMERIS_TYPE":"0","DECAY_DATE":null,"REF_FRAME":"TEME","TIME_SYSTEM":"UTC","SITE":"AFETR","PERIAPSIS":"546.121","ARG_OF_PERICENTER":"62.8152","TLE_LINE2":"2 47655  53.0567  32.8370 0001570  62.8152 297.2997 15.06401572 99986","NORAD_CAT_ID":"47655","EPOCH":"2022-12-01T10:28:07.127040","INCLINATION":"53.0567","CLASSIFICATION_TYPE":"U","OBJECT_NAME":"STARLINK-2039","FILE":"3677495","PERIOD":"95.592","REV_AT_EPOCH":"9998","SEMIMAJOR_AXIS":"6925.344","MEAN_ELEMENT_THEORY":"SGP4","RCS_SIZE":"LARGE","TLE_LINE1":"1 47655U 21012AM  22335.43619360  .00000706  00000-0  66281-4 0  9990","ELEMENT_SET_NO":"999","MEAN_MOTION_DDOT":"0.0000000000000","COUNTRY_CODE":"US","OBJECT_ID":"2021-012AM","OBJECT_TYPE":"PAYLOAD","MEAN_ANOMALY":"297.2997","MEAN_MOTION":"15.06401572","GP_ID":"219265163","ECCENTRICITY":"0.00015700","CENTER_NAME":"EARTH","LAUNCH_DATE":"2021-02-16","RA_OF_ASC_NODE":"32.8370","APOAPSIS":"548.296"},{"CLASSIFICATION_TYPE":"U","PERIOD":"95.592","FILE":"3677606","REV_AT_EPOCH":"9969","OBJECT_NAME":"STARLINK-2040","INCLINATION":"53.0569","TLE_LINE2":"2 47656  53.0569  14.2564 0001649  86.3497 273.7681 15.06399868 99699","NORAD_CAT_ID":"47656","EPOCH":"2022-12-01T02:54:17.875872","SITE":"AFETR","PERIAPSIS":"546.072","ARG_OF_PERICENTER":"86.3497","REF_FRAME":"TEME","TIME_SYSTEM":"UTC","MEAN_MOTION_DOT":"-0.00000530","DECAY_DATE":null,"EPHEMERIS_TYPE":"0","BSTAR":"-0.00001670800000","CENTER_NAME":"EARTH","ECCENTRICITY":"0.00016490","LAUNCH_DATE":"2021-02-16","RA_OF_ASC_NODE":"14.2564","APOAPSIS":"548.356","GP_ID":"219272290","MEAN_ANOMALY":"273.7681","MEAN_MOTION":"15.06399868","OBJECT_ID":"2021-012AN","OBJECT_TYPE":"PAYLOAD","ELEMENT_SET_NO":"999","COUNTRY_CODE":"US","MEAN_MOTION_DDOT":"0.0000000000000","RCS_SIZE":"LARGE","TLE_LINE1":"1 47656U 21012AN  22335.12104023 -.00000530  00000-0 -16708-4 0  9998","MEAN_ELEMENT_THEORY":"SGP4","SEMIMAJOR_AXIS":"6925.349"},{"RCS_SIZE":"LARGE","TLE_LINE1":"1 47657U 21012AP  22335.45830614  .00000396  00000-0  45486-4 0  9990","ELEMENT_SET_NO":"999","MEAN_MOTION_DDOT":"0.0000000000000","COUNTRY_CODE":"US","SEMIMAJOR_AXIS":"6925.347","MEAN_ELEMENT_THEORY":"SGP4","GP_ID":"219266165","ECCENTRICITY":"0.00014130","CENTER_NAME":"EARTH","LAUNCH_DATE":"2021-02-16","APOAPSIS":"548.190","RA_OF_ASC_NODE":"32.7366","OBJECT_ID":"2021-012AP","OBJECT_TYPE":"PAYLOAD","MEAN_ANOMALY":"289.2641","MEAN_MOTION":"15.06400648","MEAN_MOTION_DOT":"0.00000396","DECAY_DATE":null,"EPHEMERIS_TYPE":"0","REF_FRAME":"TEME","TIME_SYSTEM":"UTC","BSTAR":"0.00004548600000","INCLINATION":"53.0561","CLASSIFICATION_TYPE":"U","FILE":"3677495","PERIOD":"95.592","REV_AT_EPOCH":"9998","OBJECT_NAME":"STARLINK-2041","SITE":"AFETR","ARG_OF_PERICENTER":"70.8501","PERIAPSIS":"546.233","TLE_LINE2":"2 47657  53.0561  32.7366 0001413  70.8501 289.2641 15.06400648 99989","NORAD_CAT_ID":"47657","EPOCH":"2022-12-01T10:59:57.650496"},{"BSTAR":"0.00006315300000","TIME_SYSTEM":"UTC","REF_FRAME":"TEME","MEAN_MOTION_DOT":"0.00000659","DECAY_DATE":null,"EPHEMERIS_TYPE":"0","TLE_LINE2":"2 47658  53.0559  30.9863 0001533  64.7392 295.3756 15.06399986100061","NORAD_CAT_ID":"47658","EPOCH":"2022-12-01T20:22:34.869216","SITE":"AFETR","PERIAPSIS":"546.152","ARG_OF_PERICENTER":"64.7392","FILE":"3678231","PERIOD":"95.592","REV_AT_EPOCH":"10006","OBJECT_NAME":"STARLINK-2042","CLASSIFICATION_TYPE":"U","INCLINATION":"53.0559","MEAN_ELEMENT_THEORY":"SGP4","SEMIMAJOR_AXIS":"6925.349","MEAN_MOTION_DDOT":"0.0000000000000","COUNTRY_CODE":"US","ELEMENT_SET_NO":"999","RCS_SIZE":"LARGE","TLE_LINE1":"1 47658U 21012AQ  22335.84901469  .00000659  00000-0  63153-4 0  9994","MEAN_MOTION":"15.06399986","MEAN_ANOMALY":"295.3756","OBJECT_TYPE":"PAYLOAD","OBJECT_ID":"2021-012AQ","CENTER_NAME":"EARTH","ECCENTRICITY":"0.00015330","APOAPSIS":"548.275","RA_OF_ASC_NODE":"30.9863","LAUNCH_DATE":"2021-02-16","GP_ID":"219304957"},{"MEAN_MOTION":"15.06397322","MEAN_ANOMALY":"299.0083","OBJECT_TYPE":"PAYLOAD","OBJECT_ID":"2021-012AR","ECCENTRICITY":"0.00015670","CENTER_NAME":"EARTH","APOAPSIS":"548.307","RA_OF_ASC_NODE":"272.3562","LAUNCH_DATE":"2021-02-16","GP_ID":"219272810","MEAN_ELEMENT_THEORY":"SGP4","SEMIMAJOR_AXIS":"6925.357","MEAN_MOTION_DDOT":"0.0000000000000","COUNTRY_CODE":"US","ELEMENT_SET_NO":"999","RCS_SIZE":"LARGE","TLE_LINE1":"1 47659U 21012AR  22335.54308341  .00001091  00000-0  92149-4 0  9990","TLE_LINE2":"2 47659  53.0556 272.3562 0001567  61.1063 299.0083 15.06397322101157","NORAD_CAT_ID":"47659","EPOCH":"2022-12-01T13:02:02.406624","SITE":"AFETR","PERIAPSIS":"546.137","ARG_OF_PERICENTER":"61.1063","REV_AT_EPOCH":"10115","FILE":"3677608","PERIOD":"95.592","OBJECT_NAME":"STARLINK-2043","CLASSIFICATION_TYPE":"U","INCLINATION":"53.0556","BSTAR":"0.00009214900000","TIME_SYSTEM":"UTC","REF_FRAME":"TEME","MEAN_MOTION_DOT":"0.00001091","DECAY_DATE":null,"EPHEMERIS_TYPE":"0"},{"INCLINATION":"53.0530","CLASSIFICATION_TYPE":"U","FILE":"3678231","PERIOD":"95.592","REV_AT_EPOCH":"10183","OBJECT_NAME":"STARLINK-2044","PERIAPSIS":"545.961","ARG_OF_PERICENTER":"57.9389","SITE":"AFETR","NORAD_CAT_ID":"47660","EPOCH":"2022-12-01T19:52:10.604928","TLE_LINE2":"2 47660  53.0530 261.7008 0001798  57.9389 302.1774 15.06402436101839","EPHEMERIS_TYPE":"0","DECAY_DATE":null,"MEAN_MOTION_DOT":"0.00003968","REF_FRAME":"TEME","TIME_SYSTEM":"UTC","BSTAR":"0.00028512000000","GP_ID":"219303461","LAUNCH_DATE":"2021-02-16","APOAPSIS":"548.451","RA_OF_ASC_NODE":"261.7008","CENTER_NAME":"EARTH","ECCENTRICITY":"0.00017980","OBJECT_ID":"2021-012AS","OBJECT_TYPE":"PAYLOAD","MEAN_MOTION":"15.06402436","MEAN_ANOMALY":"302.1774","TLE_LINE1":"1 47660U 21012AS  22335.82790052  .00003968  00000-0  28512-3 0  9994","RCS_SIZE":"LARGE","ELEMENT_SET_NO":"999","COUNTRY_CODE":"US","MEAN_MOTION_DDOT":"0.0000000000000","SEMIMAJOR_AXIS":"6925.341","MEAN_ELEMENT_THEORY":"SGP4"},{"BSTAR":"0.00003541700000","MEAN_MOTION_DOT":"0.00000246","EPHEMERIS_TYPE":"0","DECAY_DATE":null,"TIME_SYSTEM":"UTC","REF_FRAME":"TEME","SITE":"AFETR","ARG_OF_PERICENTER":"60.1747","PERIAPSIS":"546.221","TLE_LINE2":"2 47661  53.0564  11.1443 0001450  60.1747 299.9386 15.06396319100301","NORAD_CAT_ID":"47661","EPOCH":"2022-12-01T19:32:10.515840","INCLINATION":"53.0564","PERIOD":"95.592","FILE":"3678231","REV_AT_EPOCH":"10030","OBJECT_NAME":"STARLINK-2051","CLASSIFICATION_TYPE":"U","SEMIMAJOR_AXIS":"6925.360","MEAN_ELEMENT_THEORY":"SGP4","RCS_SIZE":"LARGE","TLE_LINE1":"1 47661U 21012AT  22335.81401060  .00000246  00000-0  35417-4 0  9991","MEAN_MOTION_DDOT":"0.0000000000000","COUNTRY_CODE":"US","ELEMENT_SET_NO":"999","OBJECT_TYPE":"PAYLOAD","OBJECT_ID":"2021-012AT","MEAN_MOTION":"15.06396319","MEAN_ANOMALY":"299.9386","GP_ID":"219304212","CENTER_NAME":"EARTH","ECCENTRICITY":"0.00014500","RA_OF_ASC_NODE":"11.1443","APOAPSIS":"548.229","LAUNCH_DATE":"2021-02-16"},{"RCS_SIZE":"LARGE","TLE_LINE1":"1 47662U 21012AU  22335.79461777  .00001362  00000-0  11031-3 0  9995","COUNTRY_CODE":"US","MEAN_MOTION_DDOT":"0.0000000000000","ELEMENT_SET_NO":"999","SEMIMAJOR_AXIS":"6925.318","MEAN_ELEMENT_THEORY":"SGP4","GP_ID":"219304458","ECCENTRICITY":"0.00014950","CENTER_NAME":"EARTH","APOAPSIS":"548.219","RA_OF_ASC_NODE":"11.2311","LAUNCH_DATE":"2021-02-16","OBJECT_TYPE":"PAYLOAD","OBJECT_ID":"2021-012AU","MEAN_ANOMALY":"297.5531","MEAN_MOTION":"15.06409844","MEAN_MOTION_DOT":"0.00001362","DECAY_DATE":null,"EPHEMERIS_TYPE":"0","TIME_SYSTEM":"UTC","REF_FRAME":"TEME","BSTAR":"0.00011031000000","INCLINATION":"53.0557","FILE":"3678231","REV_AT_EPOCH":"10032","PERIOD":"95.592","OBJECT_NAME":"STARLINK-2052","CLASSIFICATION_TYPE":"U","SITE":"AFETR","PERIAPSIS":"546.148","ARG_OF_PERICENTER":"62.5610","TLE_LINE2":"2 47662  53.0557  11.2311 0001495  62.5610 297.5531 15.06409844100329","NORAD_CAT_ID":"47662","EPOCH":"2022-12-01T19:04:14.975328"},{"TLE_LINE2":"2 47663  53.0574 291.2487 0001589  57.4647 302.6495 15.06402958101440","NORAD_CAT_ID":"47663","EPOCH":"2022-12-01T20:35:54.412224","SITE":"AFETR","PERIAPSIS":"546.104","ARG_OF_PERICENTER":"57.4647","FILE":"3678231","OBJECT_NAME":"STARLINK-2053","PERIOD":"95.592","REV_AT_EPOCH":"10144","CLASSIFICATION_TYPE":"U","INCLINATION":"53.0574","BSTAR":"0.00011007000000","TIME_SYSTEM":"UTC","REF_FRAME":"TEME","MEAN_MOTION_DOT":"0.00001358","EPHEMERIS_TYPE":"0","DECAY_DATE":null,"MEAN_MOTION":"15.06402958","MEAN_ANOMALY":"302.6495","OBJECT_TYPE":"PAYLOAD","OBJECT_ID":"2021-012AV","ECCENTRICITY":"0.00015890","CENTER_NAME":"EARTH","RA_OF_ASC_NODE":"291.2487","APOAPSIS":"548.305","LAUNCH_DATE":"2021-02-16","GP_ID":"219303713","MEAN_ELEMENT_THEORY":"SGP4","SEMIMAJOR_AXIS":"6925.339","COUNTRY_CODE":"US","MEAN_MOTION_DDOT":"0.0000000000000","ELEMENT_SET_NO":"999","RCS_SIZE":"LARGE","TLE_LINE1":"1 47663U 21012AV  22335.85826866  .00001358  00000-0  11007-3 0  9995"},{"RCS_SIZE":"LARGE","TLE_LINE1":"1 47664U 21012AW  22335.79557523  .00000275  00000-0  37365-4 0  9993","MEAN_MOTION_DDOT":"0.0000000000000","COUNTRY_CODE":"US","ELEMENT_SET_NO":"999","SEMIMAJOR_AXIS":"6925.375","MEAN_ELEMENT_THEORY":"SGP4","GP_ID":"219303961","CENTER_NAME":"EARTH","ECCENTRICITY":"0.00014010","RA_OF_ASC_NODE":"11.2252","APOAPSIS":"548.210","LAUNCH_DATE":"2021-02-16","OBJECT_TYPE":"PAYLOAD","OBJECT_ID":"2021-012AW","MEAN_MOTION":"15.06391421","MEAN_ANOMALY":"281.6292","MEAN_MOTION_DOT":"0.00000275","DECAY_DATE":null,"EPHEMERIS_TYPE":"0","TIME_SYSTEM":"UTC","REF_FRAME":"TEME","BSTAR":"0.00003736500000","INCLINATION":"53.0557","FILE":"3678231","PERIOD":"95.593","OBJECT_NAME":"STARLINK-2054","REV_AT_EPOCH":"10032","CLASSIFICATION_TYPE":"U","SITE":"AFETR","ARG_OF_PERICENTER":"78.4854","PERIAPSIS":"546.270","TLE_LINE2":"2 47664  53.0557  11.2252 0001401  78.4854 281.6292 15.06391421100327","NORAD_CAT_ID":"47664","EPOCH":"2022-12-01T19:05:37.699872"}];
